[{"OBJECT_NAME":"STARLINK-3291","OBJECT_ID":"2021-125V","EPOCH":"2026-03-27T12:35:58.940736","MEAN_MOTION":15.08841094,"ECCENTRICITY":0.0001221,"INCLINATION":53.2165,"RA_OF_ASC_NODE":169.0554,"ARG_OF_PERICENTER":90.9012,"MEAN_ANOMALY":269.212,"EPHEMERIS_TYPE":0,"CLASSIFICATION_TYPE":"U","NORAD_CAT_ID":50175,"ELEMENT_SET_NO":999,"REV_AT_EPOCH":23929,"BSTAR":7.3383e-5,"MEAN_MOTION_DOT":8.8e-6,"MEAN_MOTION_DDOT":0},{"OBJECT_NAME":"STARLINK-3293","OBJECT_ID":"2021-125W","EPOCH":"2026-03-27T12:09:28.766016","MEAN_MOTION":15.08836299,"ECCENTRICITY":0.0001395,"INCLINATION":53.2157,"RA_OF_ASC_NODE":169.1366,"ARG_OF_PERICENTER":99.927,"MEAN_ANOMALY":260.188,"EPHEMERIS_TYPE":0,"CLASSIFICATION_TYPE":"U","NORAD_CAT_ID":50176,"ELEMENT_SET_NO":999,"REV_AT_EPOCH":23933,"BSTAR":7.1218e-5,"MEAN_MOTION_DOT":8.46e-6,"MEAN_MOTION_DDOT":0},{"OBJECT_NAME":"STARLINK-3282","OBJECT_ID":"2021-125X","EPOCH":"2026-03-27T15:36:09.276768","MEAN_MOTION":15.08835813,"ECCENTRICITY":0.000117,"INCLINATION":53.2173,"RA_OF_ASC_NODE":168.4915,"ARG_OF_PERICENTER":82.3101,"MEAN_ANOMALY":277.8024,"EPHEMERIS_TYPE":0,"CLASSIFICATION_TYPE":"U","NORAD_CAT_ID":50177,"ELEMENT_SET_NO":999,"REV_AT_EPOCH":23931,"BSTAR":-9.6036e-6,"MEAN_MOTION_DOT":-4.41e-6,"MEAN_MOTION_DDOT":0},{"OBJECT_NAME":"STARLINK-3283","OBJECT_ID":"2021-125Z","EPOCH":"2026-03-27T13:50:09.783168","MEAN_MOTION":15.08840831,"ECCENTRICITY":0.0001007,"INCLINATION":53.2174,"RA_OF_ASC_NODE":168.8225,"ARG_OF_PERICENTER":88.5478,"MEAN_ANOMALY":271.5629,"EPHEMERIS_TYPE":0,"CLASSIFICATION_TYPE":"U","NORAD_CAT_ID":50179,"ELEMENT_SET_NO":999,"REV_AT_EPOCH":23930,"BSTAR":-7.2782e-7,"MEAN_MOTION_DOT":-2.99e-6,"MEAN_MOTION_DDOT":0},{"OBJECT_NAME":"STARLINK-3265","OBJECT_ID":"2021-125AA","EPOCH":"2026-03-27T16:41:08.125152","MEAN_MOTION":15.0880524,"ECCENTRICITY":4.45e-5,"INCLINATION":53.2156,"RA_OF_ASC_NODE":168.3,"ARG_OF_PERICENTER":347.8297,"MEAN_ANOMALY":12.2684,"EPHEMERIS_TYPE":0,"CLASSIFICATION_TYPE":"U","NORAD_CAT_ID":50180,"ELEMENT_SET_NO":999,"REV_AT_EPOCH":23936,"BSTAR":0.00079065,"MEAN_MOTION_DOT":0.00012306,"MEAN_MOTION_DDOT":0},{"OBJECT_NAME":"STARLINK-3285","OBJECT_ID":"2021-125AB","EPOCH":"2026-03-27T11:44:22.204032","MEAN_MOTION":15.0885045,"ECCENTRICITY":0.0001153,"INCLINATION":53.2165,"RA_OF_ASC_NODE":169.2275,"ARG_OF_PERICENTER":85.9567,"MEAN_ANOMALY":274.1557,"EPHEMERIS_TYPE":0,"CLASSIFICATION_TYPE":"U","NORAD_CAT_ID":50181,"ELEMENT_SET_NO":999,"REV_AT_EPOCH":23929,"BSTAR":-7.7338e-6,"MEAN_MOTION_DOT":-4.11e-6,"MEAN_MOTION_DDOT":0},{"OBJECT_NAME":"STARLINK-3277","OBJECT_ID":"2021-125AC","EPOCH":"2026-03-27T14:21:56.586240","MEAN_MOTION":15.08840578,"ECCENTRICITY":0.0001261,"INCLINATION":53.2171,"RA_OF_ASC_NODE":168.571,"ARG_OF_PERICENTER":92.1037,"MEAN_ANOMALY":268.01,"EPHEMERIS_TYPE":0,"CLASSIFICATION_TYPE":"U","NORAD_CAT_ID":50182,"ELEMENT_SET_NO":999,"REV_AT_EPOCH":23934,"BSTAR":7.9358e-5,"MEAN_MOTION_DOT":9.75e-6,"MEAN_MOTION_DDOT":0},{"OBJECT_NAME":"STARLINK-3281","OBJECT_ID":"2021-125AD","EPOCH":"2026-03-27T13:13:04.615104","MEAN_MOTION":15.08842432,"ECCENTRICITY":0.0001229,"INCLINATION":53.2171,"RA_OF_ASC_NODE":168.9401,"ARG_OF_PERICENTER":89.9828,"MEAN_ANOMALY":270.1305,"EPHEMERIS_TYPE":0,"CLASSIFICATION_TYPE":"U","NORAD_CAT_ID":50183,"ELEMENT_SET_NO":999,"REV_AT_EPOCH":23934,"BSTAR":2.7872e-5,"MEAN_MOTION_DOT":1.56e-6,"MEAN_MOTION_DDOT":0},{"OBJECT_NAME":"STARLINK-3279","OBJECT_ID":"2021-125AF","EPOCH":"2026-03-27T15:04:22.554912","MEAN_MOTION":15.08842508,"ECCENTRICITY":0.0001537,"INCLINATION":53.2156,"RA_OF_ASC_NODE":168.631,"ARG_OF_PERICENTER":91.6384,"MEAN_ANOMALY":268.4784,"EPHEMERIS_TYPE":0,"CLASSIFICATION_TYPE":"U","NORAD_CAT_ID":50185,"ELEMENT_SET_NO":999,"REV_AT_EPOCH":23931,"BSTAR":0.00011198,"MEAN_MOTION_DOT":1.495e-5,"MEAN_MOTION_DDOT":0},{"OBJECT_NAME":"STARLINK-3274","OBJECT_ID":"2021-125AG","EPOCH":"2026-03-27T13:43:33.168288","MEAN_MOTION":15.08838163,"ECCENTRICITY":0.0001274,"INCLINATION":53.2166,"RA_OF_ASC_NODE":178.8446,"ARG_OF_PERICENTER":82.822,"MEAN_ANOMALY":277.2917,"EPHEMERIS_TYPE":0,"CLASSIFICATION_TYPE":"U","NORAD_CAT_ID":50186,"ELEMENT_SET_NO":999,"REV_AT_EPOCH":23915,"BSTAR":1.1265e-5,"MEAN_MOTION_DOT":-1.09e-6,"MEAN_MOTION_DDOT":0},{"OBJECT_NAME":"STARLINK-3272","OBJECT_ID":"2021-125AH","EPOCH":"2026-03-27T15:55:43.148640","MEAN_MOTION":15.09298659,"ECCENTRICITY":0.0001239,"INCLINATION":53.2161,"RA_OF_ASC_NODE":158.411,"ARG_OF_PERICENTER":42.9955,"MEAN_ANOMALY":317.1134,"EPHEMERIS_TYPE":0,"CLASSIFICATION_TYPE":"U","NORAD_CAT_ID":50187,"ELEMENT_SET_NO":999,"REV_AT_EPOCH":23943,"BSTAR":0.00037587,"MEAN_MOTION_DOT":5.774e-5,"MEAN_MOTION_DDOT":0},{"OBJECT_NAME":"STARLINK-3276","OBJECT_ID":"2021-125AK","EPOCH":"2026-03-27T12:59:55.413312","MEAN_MOTION":15.13212893,"ECCENTRICITY":0.0001956,"INCLINATION":53.2139,"RA_OF_ASC_NODE":167.6059,"ARG_OF_PERICENTER":199.9678,"MEAN_ANOMALY":160.1239,"EPHEMERIS_TYPE":0,"CLASSIFICATION_TYPE":"U","NORAD_CAT_ID":50189,"ELEMENT_SET_NO":999,"REV_AT_EPOCH":23935,"BSTAR":0.00051423,"MEAN_MOTION_DOT":8.949e-5,"MEAN_MOTION_DDOT":0},{"OBJECT_NAME":"STARLINK-3268","OBJECT_ID":"2021-125AL","EPOCH":"2026-03-27T12:32:00.406752","MEAN_MOTION":15.08841362,"ECCENTRICITY":0.0001244,"INCLINATION":53.216,"RA_OF_ASC_NODE":159.0688,"ARG_OF_PERICENTER":89.4705,"MEAN_ANOMALY":270.643,"EPHEMERIS_TYPE":0,"CLASSIFICATION_TYPE":"U","NORAD_CAT_ID":50190,"ELEMENT_SET_NO":999,"REV_AT_EPOCH":23942,"BSTAR":3.5048e-5,"MEAN_MOTION_DOT":2.7e-6,"MEAN_MOTION_DDOT":0},{"OBJECT_NAME":"STARLINK-3273","OBJECT_ID":"2021-125AM","EPOCH":"2026-03-27T17:31:24.668832","MEAN_MOTION":15.08831731,"ECCENTRICITY":0.0001257,"INCLINATION":53.2168,"RA_OF_ASC_NODE":178.1327,"ARG_OF_PERICENTER":92.5432,"MEAN_ANOMALY":267.5704,"EPHEMERIS_TYPE":0,"CLASSIFICATION_TYPE":"U","NORAD_CAT_ID":50191,"ELEMENT_SET_NO":999,"REV_AT_EPOCH":23917,"BSTAR":0.00013988,"MEAN_MOTION_DOT":1.939e-5,"MEAN_MOTION_DDOT":0},{"OBJECT_NAME":"STARLINK-3259","OBJECT_ID":"2021-125AN","EPOCH":"2026-03-27T12:26:42.641376","MEAN_MOTION":15.08841154,"ECCENTRICITY":0.000132,"INCLINATION":53.2167,"RA_OF_ASC_NODE":159.0846,"ARG_OF_PERICENTER":87.3971,"MEAN_ANOMALY":272.7173,"EPHEMERIS_TYPE":0,"CLASSIFICATION_TYPE":"U","NORAD_CAT_ID":50192,"ELEMENT_SET_NO":999,"REV_AT_EPOCH":23942,"BSTAR":4.0355e-5,"MEAN_MOTION_DOT":3.54e-6,"MEAN_MOTION_DDOT":0},{"OBJECT_NAME":"STARLINK-3261","OBJECT_ID":"2021-125AP","EPOCH":"2026-03-27T14:17:59.254944","MEAN_MOTION":15.08839295,"ECCENTRICITY":0.0001708,"INCLINATION":53.2151,"RA_OF_ASC_NODE":158.7374,"ARG_OF_PERICENTER":88.9391,"MEAN_ANOMALY":271.1796,"EPHEMERIS_TYPE":0,"CLASSIFICATION_TYPE":"U","NORAD_CAT_ID":50193,"ELEMENT_SET_NO":999,"REV_AT_EPOCH":23948,"BSTAR":7.369e-5,"MEAN_MOTION_DOT":8.85e-6,"MEAN_MOTION_DDOT":0},{"OBJECT_NAME":"STARLINK-3266","OBJECT_ID":"2021-125AR","EPOCH":"2026-03-27T11:01:55.077600","MEAN_MOTION":15.08844716,"ECCENTRICITY":0.0001038,"INCLINATION":53.216,"RA_OF_ASC_NODE":159.349,"ARG_OF_PERICENTER":85.3583,"MEAN_ANOMALY":274.7528,"EPHEMERIS_TYPE":0,"CLASSIFICATION_TYPE":"U","NORAD_CAT_ID":50195,"ELEMENT_SET_NO":999,"REV_AT_EPOCH":23941,"BSTAR":2.8916e-5,"MEAN_MOTION_DOT":1.72e-6,"MEAN_MOTION_DDOT":0}]
