STARLINK-3291           
1 50175U 21125V   26086.52498774  .00000880  00000+0  73383-4 0  9990
2 50175  53.2165 169.0554 0001221  90.9012 269.2120 15.08841094239296
STARLINK-3293           
1 50176U 21125W   26086.50658294  .00000846  00000+0  71218-4 0  9991
2 50176  53.2157 169.1366 0001395  99.9270 260.1880 15.08836299239336
STARLINK-3282           
1 50177U 21125X   26086.65010737 -.00000441  00000+0 -96036-5 0  9991
2 50177  53.2173 168.4915 0001170  82.3101 277.8024 15.08835813239311
STARLINK-3283           
1 50179U 21125Z   26086.57650212 -.00000299  00000+0 -72782-6 0  9996
2 50179  53.2174 168.8225 0001007  88.5478 271.5629 15.08840831239303
STARLINK-3265           
1 50180U 21125AA  26086.69523293  .00012306  00000+0  79065-3 0  9997
2 50180  53.2156 168.3000 0000445 347.8297  12.2684 15.08805240239368
STARLINK-3285           
1 50181U 21125AB  26086.48914588 -.00000411  00000+0 -77338-5 0  9995
2 50181  53.2165 169.2275 0001153  85.9567 274.1557 15.08850450239293
STARLINK-3277           
1 50182U 21125AC  26086.59857160  .00000975  00000+0  79358-4 0  9996
2 50182  53.2171 168.5710 0001261  92.1037 268.0100 15.08840578239341
STARLINK-3281           
1 50183U 21125AD  26086.55074786  .00000156  00000+0  27872-4 0  9993
2 50183  53.2171 168.9401 0001229  89.9828 270.1305 15.08842432239341
STARLINK-3279           
1 50185U 21125AF  26086.62803883  .00001495  00000+0  11198-3 0  9991
2 50185  53.2156 168.6310 0001537  91.6384 268.4784 15.08842508239313
STARLINK-3274           
1 50186U 21125AG  26086.57191167 -.00000109  00000+0  11265-4 0  9999
2 50186  53.2166 178.8446 0001274  82.8220 277.2917 15.08838163239157
STARLINK-3272           
1 50187U 21125AH  26086.66369385  .00005774  00000+0  37587-3 0  9995
2 50187  53.2161 158.4110 0001239  42.9955 317.1134 15.09298659239435
STARLINK-3276           
1 50189U 21125AK  26086.54161358  .00008949  00000+0  51423-3 0  9996
2 50189  53.2139 167.6059 0001956 199.9678 160.1239 15.13212893239351
STARLINK-3268           
1 50190U 21125AL  26086.52222693  .00000270  00000+0  35048-4 0  9991
2 50190  53.2160 159.0688 0001244  89.4705 270.6430 15.08841362239425
STARLINK-3273           
1 50191U 21125AM  26086.73014663  .00001939  00000+0  13988-3 0  9992
2 50191  53.2168 178.1327 0001257  92.5432 267.5704 15.08831731239172
STARLINK-3259           
1 50192U 21125AN  26086.51854909  .00000354  00000+0  40355-4 0  9993
2 50192  53.2167 159.0846 0001320  87.3971 272.7173 15.08841154239423
STARLINK-3261           
1 50193U 21125AP  26086.59582471  .00000885  00000+0  73690-4 0  9991
2 50193  53.2151 158.7374 0001708  88.9391 271.1796 15.08839295239485
STARLINK-3266           
1 50195U 21125AR  26086.45966525  .00000172  00000+0  28916-4 0  9994
2 50195  53.2160 159.3490 0001038  85.3583 274.7528 15.08844716239412
